{"type": "FeatureCollection", "features": [ {"type": "Feature", "properties": {"norad_id": 33905, "name": "COSMOS 2251 DEB", "group": "cosmos-2251-debris", "lat": -73.4784315428751, "lon": -165.04890562478909, "alt_km": 773.9208470281446, "timestamp": "2025-12-22T20:43:46.241062+00:00", "meta": {"OBJECT_NAME": "COSMOS 2251 DEB", "OBJECT_ID": "1993-036DJ", "EPOCH": "2025-12-22T02:51:33.297696", "MEAN_MOTION": 14.35416308, "ECCENTRICITY": 0.00582858, "INCLINATION": 73.8867, "RA_OF_ASC_NODE": 299.2833, "ARG_OF_PERICENTER": 186.7926, "MEAN_ANOMALY": 192.7216, "EPHEMERIS_TYPE": 0, "CLASSIFICATION_TYPE": "U", "NORAD_CAT_ID": 33905, "ELEMENT_SET_NO": 999, "REV_AT_EPOCH": 87822, "BSTAR": 0.00050394638, "MEAN_MOTION_DOT": 1.448e-05, "MEAN_MOTION_DDOT": 0}, "tle": {"line1": "1 33905U 93036DJ  25356.11913539  .00001448  00000+0  50395-3 0  9995", "line2": "2 33905  73.8867 299.2833 0058285 186.7926 192.7216 14.35416308878224"}}, "geometry": {"type": "Point", "coordinates": [-165.04890562478909, -73.4784315428751]}}, {"type": "Feature", "properties": {"norad_id": 33906, "name": "COSMOS 2251 DEB", "group": "cosmos-2251-debris", "lat": -40.67766967183079, "lon": 136.48170579038515, "alt_km": 716.0438594449088, "timestamp": "2025-12-22T20:43:46.241073+00:00", "meta": {"OBJECT_NAME": "COSMOS 2251 DEB", "OBJECT_ID": "1993-036DK", "EPOCH": "2025-12-22T03:19:15.043584", "MEAN_MOTION": 14.57236337, "ECCENTRICITY": 0.00369122, "INCLINATION": 74.0308, "RA_OF_ASC_NODE": 303.6123, "ARG_OF_PERICENTER": 331.6721, "MEAN_ANOMALY": 47.5902, "EPHEMERIS_TYPE": 0, "CLASSIFICATION_TYPE": "U", "NORAD_CAT_ID": 33906, "ELEMENT_SET_NO": 999, "REV_AT_EPOCH": 88145, "BSTAR": 0.0018994004, "MEAN_MOTION_DOT": 8.645e-05, "MEAN_MOTION_DDOT": 0}, "tle": {"line1": "1 33906U 93036DK  25356.13836856  .00008645  00000+0  18994-2 0  9998", "line2": "2 33906  74.0308 303.6123 0036912 331.6721  47.5902 14.57236337881451"}}, "geometry": {"type": "Point", "coordinates": [136.48170579038515, -40.67766967183079]}}, {"type": "Feature", "properties": {"norad_id": 33907, "name": "COSMOS 2251 DEB", "group": "cosmos-2251-debris", "lat": -51.9982740183837, "lon": -6.179394396237271, "alt_km": 838.9755061685873, "timestamp": "2025-12-22T20:43:46.241083+00:00", "meta": {"OBJECT_NAME": "COSMOS 2251 DEB", "OBJECT_ID": "1993-036DL", "EPOCH": "2025-12-22T11:29:12.563232", "MEAN_MOTION": 14.30589981, "ECCENTRICITY": 0.01118629, "INCLINATION": 74.0693, "RA_OF_ASC_NODE": 15.9616, "ARG_OF_PERICENTER": 68.4867, "MEAN_ANOMALY": 55.0515, "EPHEMERIS_TYPE": 0, "CLASSIFICATION_TYPE": "U", "NORAD_CAT_ID": 33907, "ELEMENT_SET_NO": 999, "REV_AT_EPOCH": 86719, "BSTAR": 0.0019780388, "MEAN_MOTION_DOT": 5.506e-05, "MEAN_MOTION_DDOT": 0}, "tle": {"line1": "1 33907U 93036DL  25356.47861763  .00005506  00000+0  19780-2 0  9998", "line2": "2 33907  74.0693  15.9616 0111862  68.4867  55.0515 14.30589981867199"}}, "geometry": {"type": "Point", "coordinates": [-6.179394396237271, -51.9982740183837]}}, {"type": "Feature", "properties": {"norad_id": 33908, "name": "COSMOS 2251 DEB", "group": "cosmos-2251-debris", "lat": -31.308283203231333, "lon": 17.960090452255635, "alt_km": 712.9494817784262, "timestamp": "2025-12-22T20:43:46.241093+00:00", "meta": {"OBJECT_NAME": "COSMOS 2251 DEB", "OBJECT_ID": "1993-036DM", "EPOCH": "2025-12-22T12:53:35.676672", "MEAN_MOTION": 14.07412362, "ECCENTRICITY": 0.02223704, "INCLINATION": 73.8362, "RA_OF_ASC_NODE": 188.3795, "ARG_OF_PERICENTER": 210.0789, "MEAN_ANOMALY": 148.7426, "EPHEMERIS_TYPE": 0, "CLASSIFICATION_TYPE": "U", "NORAD_CAT_ID": 33908, "ELEMENT_SET_NO": 999, "REV_AT_EPOCH": 85611, "BSTAR": 0.00210435, "MEAN_MOTION_DOT": 4.412e-05, "MEAN_MOTION_DDOT": 0}, "tle": {"line1": "1 33908U 93036DM  25356.53721848  .00004412  00000+0  21043-2 0  9995", "line2": "2 33908  73.8362 188.3795 0222370 210.0789 148.7426 14.07412362856111"}}, "geometry": {"type": "Point", "coordinates": [17.960090452255635, -31.308283203231333]}}, {"type": "Feature", "properties": {"norad_id": 33911, "name": "COSMOS 2251 DEB", "group": "cosmos-2251-debris", "lat": -69.9475987809648, "lon": 90.74357388269515, "alt_km": 660.6830374588726, "timestamp": "2025-12-22T20:43:46.241104+00:00", "meta": {"OBJECT_NAME": "COSMOS 2251 DEB", "OBJECT_ID": "1993-036DQ", "EPOCH": "2025-12-21T04:38:28.888224", "MEAN_MOTION": 14.75044552, "ECCENTRICITY": 0.0014043, "INCLINATION": 74.0901, "RA_OF_ASC_NODE": 145.3897, "ARG_OF_PERICENTER": 79.9548, "MEAN_ANOMALY": 336.3353, "EPHEMERIS_TYPE": 0, "CLASSIFICATION_TYPE": "U", "NORAD_CAT_ID": 33911, "ELEMENT_SET_NO": 999, "REV_AT_EPOCH": 88769, "BSTAR": 0.0015038, "MEAN_MOTION_DOT": 0.00010127, "MEAN_MOTION_DDOT": 0}, "tle": {"line1": "1 33911U 93036DQ  25355.19338991  .00010127  00000+0  15038-2 0  9990", "line2": "2 33911  74.0901 145.3897 0014043  79.9548 336.3353 14.75044552887692"}}, "geometry": {"type": "Point", "coordinates": [90.74357388269515, -69.9475987809648]}}, {"type": "Feature", "properties": {"norad_id": 33912, "name": "COSMOS 2251 DEB", "group": "cosmos-2251-debris", "lat": 47.390975154779575, "lon": -171.21084804617266, "alt_km": 722.3069824955828, "timestamp": "2025-12-22T20:43:46.241114+00:00", "meta": {"OBJECT_NAME": "COSMOS 2251 DEB", "OBJECT_ID": "1993-036DR", "EPOCH": "2025-12-22T12:31:07.857408", "MEAN_MOTION": 14.51947397, "ECCENTRICITY": 0.00113143, "INCLINATION": 74.0326, "RA_OF_ASC_NODE": 171.2977, "ARG_OF_PERICENTER": 250.2022, "MEAN_ANOMALY": 172.2916, "EPHEMERIS_TYPE": 0, "CLASSIFICATION_TYPE": "U", "NORAD_CAT_ID": 33912, "ELEMENT_SET_NO": 999, "REV_AT_EPOCH": 88575, "BSTAR": 0.00076982051, "MEAN_MOTION_DOT": 3.082e-05, "MEAN_MOTION_DDOT": 0}, "tle": {"line1": "1 33912U 93036DR  25356.52161872  .00003082  00000+0  76982-3 0  9999", "line2": "2 33912  74.0326 171.2977 0011314 250.2022 172.2916 14.51947397885750"}}, "geometry": {"type": "Point", "coordinates": [-171.21084804617266, 47.390975154779575]}}, {"type": "Feature", "properties": {"norad_id": 33913, "name": "COSMOS 2251 DEB", "group": "cosmos-2251-debris", "lat": 11.235570889692783, "lon": 167.93718169410764, "alt_km": 741.1008597454584, "timestamp": "2025-12-22T20:43:46.241124+00:00", "meta": {"OBJECT_NAME": "COSMOS 2251 DEB", "OBJECT_ID": "1993-036DS", "EPOCH": "2025-12-22T14:24:22.852800", "MEAN_MOTION": 14.48523713, "ECCENTRICITY": 0.00481058, "INCLINATION": 74.0321, "RA_OF_ASC_NODE": 165.17, "ARG_OF_PERICENTER": 265.8341, "MEAN_ANOMALY": 172.1119, "EPHEMERIS_TYPE": 0, "CLASSIFICATION_TYPE": "U", "NORAD_CAT_ID": 33913, "ELEMENT_SET_NO": 999, "REV_AT_EPOCH": 88600, "BSTAR": 0.00048759984, "MEAN_MOTION_DOT": 1.829e-05, "MEAN_MOTION_DDOT": 0}, "tle": {"line1": "1 33913U 93036DS  25356.60026450  .00001829  00000+0  48760-3 0  9991", "line2": "2 33913  74.0321 165.1700 0048105 265.8341 172.1119 14.48523713886007"}}, "geometry": {"type": "Point", "coordinates": [167.93718169410764, 11.235570889692783]}}, {"type": "Feature", "properties": {"norad_id": 33914, "name": "COSMOS 2251 DEB", "group": "cosmos-2251-debris", "lat": 64.31068069266631, "lon": 34.77228980629882, "alt_km": 791.0293951267959, "timestamp": "2025-12-22T20:43:46.241134+00:00", "meta": {"OBJECT_NAME": "COSMOS 2251 DEB", "OBJECT_ID": "1993-036DT", "EPOCH": "2025-12-22T12:13:55.438752", "MEAN_MOTION": 13.71990324, "ECCENTRICITY": 0.03008141, "INCLINATION": 74.0911, "RA_OF_ASC_NODE": 358.9937, "ARG_OF_PERICENTER": 99.6634, "MEAN_ANOMALY": 23.5041, "EPHEMERIS_TYPE": 0, "CLASSIFICATION_TYPE": "U", "NORAD_CAT_ID": 33914, "ELEMENT_SET_NO": 999, "REV_AT_EPOCH": 84215, "BSTAR": 0.00023026933, "MEAN_MOTION_DOT": 2.69e-06, "MEAN_MOTION_DDOT": 0}, "tle": {"line1": "1 33914U 93036DT  25356.50966943  .00000269  00000+0  23027-3 0  9997", "line2": "2 33914  74.0911 358.9937 0300814  99.6634  23.5041 13.71990324842155"}}, "geometry": {"type": "Point", "coordinates": [34.77228980629882, 64.31068069266631]}}, {"type": "Feature", "properties": {"norad_id": 33915, "name": "COSMOS 2251 DEB", "group": "cosmos-2251-debris", "lat": -28.898226469805493, "lon": 6.466022887209807, "alt_km": 832.8800513530141, "timestamp": "2025-12-22T20:43:46.241144+00:00", "meta": {"OBJECT_NAME": "COSMOS 2251 DEB", "OBJECT_ID": "1993-036DU", "EPOCH": "2025-12-22T11:25:33.139200", "MEAN_MOTION": 14.3510367, "ECCENTRICITY": 0.01040329, "INCLINATION": 74.043, "RA_OF_ASC_NODE": 16.2632, "ARG_OF_PERICENTER": 106.1808, "MEAN_ANOMALY": 22.641, "EPHEMERIS_TYPE": 0, "CLASSIFICATION_TYPE": "U", "NORAD_CAT_ID": 33915, "ELEMENT_SET_NO": 999, "REV_AT_EPOCH": 87897, "BSTAR": 0.00032177171, "MEAN_MOTION_DOT": 9.5e-06, "MEAN_MOTION_DDOT": 0}, "tle": {"line1": "1 33915U 93036DU  25356.47607800  .00000950  00000+0  32177-3 0  9991", "line2": "2 33915  74.0430  16.2632 0104032 106.1808  22.6410 14.35103670878979"}}, "geometry": {"type": "Point", "coordinates": [6.466022887209807, -28.898226469805493]}}, {"type": "Feature", "properties": {"norad_id": 33916, "name": "COSMOS 2251 DEB", "group": "cosmos-2251-debris", "lat": -34.38512446335605, "lon": -144.76183445791543, "alt_km": 786.7419128439305, "timestamp": "2025-12-22T20:43:46.241154+00:00", "meta": {"OBJECT_NAME": "COSMOS 2251 DEB", "OBJECT_ID": "1993-036DV", "EPOCH": "2025-12-22T11:31:10.399872", "MEAN_MOTION": 13.68623879, "ECCENTRICITY": 0.03249112, "INCLINATION": 74.052, "RA_OF_ASC_NODE": 24.5842, "ARG_OF_PERICENTER": 194.6454, "MEAN_ANOMALY": 289.8397, "EPHEMERIS_TYPE": 0, "CLASSIFICATION_TYPE": "U", "NORAD_CAT_ID": 33916, "ELEMENT_SET_NO": 999, "REV_AT_EPOCH": 84024, "BSTAR": 0.00031531382, "MEAN_MOTION_DOT": 3.69e-06, "MEAN_MOTION_DDOT": 0}, "tle": {"line1": "1 33916U 93036DV  25356.47998148  .00000369  00000+0  31531-3 0  9997", "line2": "2 33916  74.0520  24.5842 0324911 194.6454 289.8397 13.68623879840247"}}, "geometry": {"type": "Point", "coordinates": [-144.76183445791543, -34.38512446335605]}}]}